GLOBALSTAR M045 [-]     
1 25676U 99019A   24034.13083760 -.00000026  00000+0  59232-3 0  9997
2 25676  51.9977 290.4993 0000924  20.3531 127.3924 12.27030616132003
GLOBALSTAR M019 [-]     
1 25677U 99019B   24034.28580900  .00000013  00000+0  10693-2 0  9994
2 25677  51.9904  25.2526 0001127  36.0162  66.7460 12.13852764124430
GLOBALSTAR M042 [-]     
1 25679U 99019D   24034.34417984 -.00000098  00000+0 -54848-4 0  9991
2 25679  52.0039  21.9889 0003058 352.7322 154.3706 12.22055133124149
GLOBALSTAR M025 [-]     
1 25770U 99031A   24034.57632289 -.00000039  00000+0  86616-3 0  9990
2 25770  51.9776 236.6502 0002160  55.2536 340.9539 11.22549272425602
GLOBALSTAR M049 [-]     
1 25771U 99031B   24033.97478106 -.00000103  00000+0 -13188-2 0  9996
2 25771  51.9836 247.6692 0002144 251.4988 108.5575 11.12102654 61775
GLOBALSTAR M047 [-]     
1 25772U 99031C   24034.14956668 -.00000060  00000+0  27404-3 0  9999
2 25772  51.9842 292.0151 0016770 121.5974 238.6471 11.31918097414486
GLOBALSTAR M052 [-]     
1 25773U 99031D   24034.30124809 -.00000004  00000+0  20914-2 0  9998
2 25773  51.9911   2.6301 0002743  62.2004  87.4246 11.15047993422744
